NORAD_CAT_ID,OBJECT_NAME,OBJECT_TYPE,EPOCH,MEAN_MOTION,ECCENTRICITY,INCLINATION,RA_OF_ASC_NODE,ARG_OF_PERICENTER,MEAN_ANOMALY,BSTAR,MEAN_MOTION_DOT,MEAN_MOTION_DDOT,TLE_LINE0,TLE_LINE1,TLE_LINE2,SEMIMAJOR_AXIS,PERIOD,APOGEE,PERIGEE,DECAYED
56801.0,STARLINK-6087,PAYLOAD,2024-01-19 12:19:24,14.98322385,0.0003022,70.0011,131.4395,266.6078,93.4735,0.00017818,2.033e-05,0.0,0 STARLINK-6087,1 56801U 23078AL  24019.51347449  .00002033  00000-0  17818-3 0  9999,2 56801  70.0011 131.4395 0003022 266.6078  93.4735 14.98322385 36576,6950.216,96.107,574.182,569.981,0.0
56801.0,STARLINK-6087,PAYLOAD,2024-01-19 13:55:32,14.98323847,0.0003004,70.001,131.2712,266.4206,93.661,0.00017476,1.992e-05,0.0,0 STARLINK-6087,1 56801U 23078AL  24019.58023391  .00001992  00000-0  17476-3 0  9996,2 56801  70.0010 131.2712 0003004 266.4206  93.6610 14.98323847 36328,6950.212,96.107,574.165,569.989,0.0
56801.0,STARLINK-6087,PAYLOAD,2024-01-19 17:07:48,14.98326761,0.0002954,70.001,130.935,264.5729,95.5093,0.00022162,2.552e-05,0.0,0 STARLINK-6087,1 56801U 23078AL  24019.71375101  .00002552  00000-0  22162-3 0  9991,2 56801  70.0010 130.9350 0002954 264.5729  95.5093 14.98326761 36340,6950.203,96.107,574.121,570.015,0.0
56801.0,STARLINK-6087,PAYLOAD,2024-01-20 13:57:33,14.98326749,0.0002765,70.0011,128.7478,262.6152,97.4693,-1.0716e-05,-2.21e-06,0.0,0 STARLINK-6087,1 56801U 23078AL  24020.58163876 -.00000221  00000-0 -10716-4 0  9998,2 56801  70.0011 128.7478 0002765 262.6152  97.4693 14.98326749 36473,6950.203,96.107,573.99,570.146,0.0
56801.0,STARLINK-6087,PAYLOAD,2024-01-20 17:09:49,14.98329913,0.0003123,70.0004,128.4093,274.1271,85.9531,-9.489e-06,-2.06e-06,0.0,0 STARLINK-6087,1 56801U 23078AL  24020.71515667 -.00000206  00000-0 -94890-5 0  9991,2 56801  70.0004 128.4093 0003123 274.1271  85.9531 14.98329913 36754,6950.193,96.107,574.229,569.888,0.0
56801.0,STARLINK-6087,PAYLOAD,2024-01-21 10:47:17,14.98386281,0.0002426,70.0002,126.5573,257.1835,102.9053,-0.00090101,-0.00010842,0.0,0 STARLINK-6087,1 56801U 23078AL  24021.44950767 -.00010842  00000-0 -90101-3 0  9992,2 56801  70.0002 126.5573 0002426 257.1835 102.9053 14.98386281 36868,6950.019,96.103,573.57,570.198,0.0
56801.0,STARLINK-6087,PAYLOAD,2024-01-21 17:11:48,14.98386266,0.0002282,70.0006,125.8847,260.6247,99.4654,-0.00075579,-9.112e-05,0.0,0 STARLINK-6087,1 56801U 23078AL  24021.71653607 -.00009112  00000-0 -75579-3 0  9995,2 56801  70.0006 125.8847 0002282 260.6247  99.4654 14.98386266 36640,6950.019,96.103,573.47,570.298,0.0
56801.0,STARLINK-6087,PAYLOAD,2024-01-22 06:00:54,14.9832104,0.0002609,70.0018,124.5386,281.5744,78.5122,0.00011875,1.324e-05,0.0,0 STARLINK-6087,1 56801U 23078AL  24022.25063557  .00001324  00000-0  11875-3 0  9998,2 56801  70.0018 124.5386 0002609 281.5744  78.5122 14.98321040 36720,6950.221,96.108,573.899,570.272,0.0
56801.0,STARLINK-6087,PAYLOAD,2024-01-22 10:49:19,14.98325295,0.0002687,70.0015,124.0339,274.5059,85.5794,9.031e-06,1.5e-07,0.0,0 STARLINK-6087,1 56801U 23078AL  24022.45091632  .00000015  00000-0  90310-5 0  9994,2 56801  70.0015 124.0339 0002687 274.5059  85.5794 14.98325295 37019,6950.207,96.107,573.94,570.205,0.0
56801.0,STARLINK-6087,PAYLOAD,2024-01-22 15:37:43,14.98323724,0.0002584,70.0015,123.5288,270.0311,90.0552,1.6132e-05,1e-06,0.0,0 STARLINK-6087,1 56801U 23078AL  24022.65119738  .00000100  00000-0  16132-4 0  9998,2 56801  70.0015 123.5288 0002584 270.0311  90.0552 14.98323724 36785,6950.212,96.107,573.873,570.281,0.0
56801.0,STARLINK-6087,PAYLOAD,2024-01-23 06:02:55,14.98331881,0.0002759,70.001,122.0137,269.3955,90.6887,-1.6689e-05,-2.92e-06,0.0,0 STARLINK-6087,1 56801U 23078AL  24023.25203255 -.00000292  00000-0 -16689-4 0  9994,2 56801  70.0010 122.0137 0002759 269.3955  90.6887 14.98331881 36876,6950.187,96.107,573.97,570.135,0.0
56801.0,STARLINK-6087,PAYLOAD,2024-01-23 10:51:19,14.98334854,0.000313,70.0001,121.508,272.2456,87.8345,-3.6816e-05,-5.32e-06,0.0,0 STARLINK-6087,1 56801U 23078AL  24023.45231033 -.00000532  00000-0 -36816-4 0  9992,2 56801  70.0001 121.5080 0003130 272.2456  87.8345 14.98334854 37163,6950.178,96.107,574.218,569.867,0.0
56801.0,STARLINK-6087,PAYLOAD,2024-01-23 15:39:43,14.98339767,0.0002971,70.0006,121.004,265.6978,94.3841,1.8316e-05,1.26e-06,0.0,0 STARLINK-6087,1 56801U 23078AL  24023.65258450  .00000126  00000-0  18316-4 0  9998,2 56801  70.0006 121.0040 0002971 265.6978  94.3841 14.98339767 36932,6950.163,96.106,574.093,569.963,0.0
56801.0,STARLINK-6087,PAYLOAD,2024-01-24 10:53:21,14.98325693,0.0002384,70.0028,118.9891,243.2887,116.8028,-7.4411e-05,-9.8e-06,0.0,0 STARLINK-6087,1 56801U 23078AL  24024.45371604 -.00000980  00000-0 -74411-4 0  9992,2 56801  70.0028 118.9891 0002384 243.2887 116.8028 14.98325693 37317,6950.206,96.107,573.728,570.414,0.0
56801.0,STARLINK-6087,PAYLOAD,2024-01-24 14:05:37,14.98319399,0.0002443,70.0019,118.6489,246.0269,114.0634,-4.494e-05,-6.29e-06,0.0,0 STARLINK-6087,1 56801U 23078AL  24024.58724016 -.00000629  00000-0 -44940-4 0  9999,2 56801  70.0019 118.6489 0002443 246.0269 114.0634 14.98319399 37070,6950.226,96.108,573.789,570.393,0.0
56801.0,STARLINK-6087,PAYLOAD,2024-01-24 15:41:45,14.98318951,0.0002487,70.0017,118.4805,246.5716,113.5182,-4.2875e-05,-6.04e-06,0.0,0 STARLINK-6087,1 56801U 23078AL  24024.65400076 -.00000604  00000-0 -42875-4 0  9992,2 56801  70.0017 118.4805 0002487 246.5716 113.5182 14.98318951 37084,6950.227,96.108,573.821,570.364,0.0
56801.0,STARLINK-6087,PAYLOAD,2024-01-25 14:07:37,14.98331718,0.0002874,70.0002,116.1229,262.8418,97.2414,-3.2217e-06,-1.31e-06,0.0,0 STARLINK-6087,1 56801U 23078AL  24025.58863286 -.00000131  00000-0 -32217-5 0  9996,2 56801  70.0002 116.1229 0002874 262.8418  97.2414 14.98331718 37221,6950.188,96.107,574.05,570.055,0.0
56801.0,STARLINK-6087,PAYLOAD,2024-01-25 15:43:45,14.98332212,0.0002748,70.0008,115.9561,256.8011,103.2841,-5.5274e-06,-1.59e-06,0.0,0 STARLINK-6087,1 56801U 23078AL  24025.65539246 -.00000159  00000-0 -55274-5 0  9998,2 56801  70.0008 115.9561 0002748 256.8011 103.2841 14.98332212 37238,6950.186,96.107,573.961,570.141,0.0
56801.0,STARLINK-6087,PAYLOAD,2024-01-26 10:57:22,14.98330615,0.0002675,70.0005,113.9353,259.2086,100.8772,0.00010752,1.19e-05,0.0,0 STARLINK-6087,1 56801U 23078AL  24026.45651001  .00001190  00000-0  10752-3 0  9995,2 56801  70.0005 113.9353 0002675 259.2086 100.8772 14.98330615 37613,6950.191,96.107,573.915,570.197,0.0
56801.0,STARLINK-6087,PAYLOAD,2024-01-26 14:09:38,14.98332467,0.0002629,70.0005,113.5988,256.7549,103.3316,0.00012659,1.418e-05,0.0,0 STARLINK-6087,1 56801U 23078AL  24026.59002804  .00001418  00000-0  12659-3 0  9992,2 56801  70.0005 113.5988 0002629 256.7549 103.3316 14.98332467 37370,6950.185,96.107,573.877,570.223,0.0
56801.0,STARLINK-6087,PAYLOAD,2024-01-27 12:35:32,14.98325757,0.0002509,70.0011,111.2433,251.5018,108.5869,-6.0355e-05,-8.13e-06,0.0,0 STARLINK-6087,1 56801U 23078AL  24027.52467728 -.00000813  00000-0 -60355-4 0  9993,2 56801  70.0011 111.2433 0002509 251.5018 108.5869 14.98325757 37776,6950.206,96.107,573.815,570.327,0.0
56801.0,STARLINK-6087,PAYLOAD,2024-01-27 14:11:40,14.98323311,0.0002547,70.0009,111.0745,254.2749,105.813,-9.0058e-05,-1.167e-05,0.0,0 STARLINK-6087,1 56801U 23078AL  24027.59144001 -.00001167  00000-0 -90058-4 0  9992,2 56801  70.0009 111.0745 0002547 254.2749 105.8130 14.98323311 37528,6950.214,96.107,573.849,570.308,0.0
56801.0,STARLINK-6087,PAYLOAD,2024-01-27 15:47:48,14.9832337,0.0002548,70.0008,110.9061,256.0294,104.0582,-8.8194e-05,-1.145e-05,0.0,0 STARLINK-6087,1 56801U 23078AL  24027.65820020 -.00001145  00000-0 -88194-4 0  9995,2 56801  70.0008 110.9061 0002548 256.0294 104.0582 14.98323370 37530,6950.213,96.107,573.849,570.307,0.0
56801.0,STARLINK-6087,PAYLOAD,2024-01-28 04:36:52,14.98334159,0.0002716,70.0003,109.558,268.1621,91.9226,-5.3952e-05,-7.37e-06,0.0,0 STARLINK-6087,1 56801U 23078AL  24028.19227313 -.00000737  00000-0 -53952-4 0  9991,2 56801  70.0003 109.5580 0002716 268.1621  91.9226 14.98334159 37873,6950.18,96.107,573.933,570.157,0.0
56801.0,STARLINK-6087,PAYLOAD,2024-01-28 14:13:40,14.98333397,0.0002954,69.9999,108.5475,272.242,87.84,-1.8953e-05,-3.19e-06,0.0,0 STARLINK-6087,1 56801U 23078AL  24028.59283187 -.00000319  00000-0 -18953-4 0  9994,2 56801  69.9999 108.5475 0002954 272.2420  87.8400 14.98333397 37672,6950.182,96.107,574.1,569.994,0.0
56801.0,STARLINK-6087,PAYLOAD,2024-01-29 11:03:25,14.9833163,0.0002989,69.9999,106.3592,269.8794,90.2023,9.0486e-05,9.87e-06,0.0,0 STARLINK-6087,1 56801U 23078AL  24029.46070788  .00000987  00000-0  90486-4 0  9992,2 56801  69.9999 106.3592 0002989 269.8794  90.2023 14.98331630 38063,6950.188,96.107,574.13,569.975,0.0
56801.0,STARLINK-6087,PAYLOAD,2024-01-30 11:05:26,14.98328849,0.0003099,69.9995,103.834,271.1337,88.9467,-3.3392e-05,-4.91e-06,0.0,0 STARLINK-6087,1 56801U 23078AL  24030.46211285 -.00000491  00000-0 -33392-4 0  9998,2 56801  69.9995 103.8340 0003099 271.1337  88.9467 14.98328849 38215,6950.196,96.107,574.215,569.908,0.0
56801.0,STARLINK-6087,PAYLOAD,2024-01-30 14:17:42,14.98327823,0.0003057,69.9995,103.4973,269.6181,90.4627,-4.1614e-05,-5.89e-06,0.0,0 STARLINK-6087,1 56801U 23078AL  24030.59563370 -.00000589  00000-0 -41614-4 0  9991,2 56801  69.9995 103.4973 0003057 269.6181  90.4627 14.98327823 37975,6950.2,96.107,574.189,569.94,0.0
56801.0,STARLINK-6087,PAYLOAD,2024-01-31 11:07:27,14.98335803,0.0003005,69.9991,101.3091,267.0765,93.005,-4.7437e-05,-6.59e-06,0.0,0 STARLINK-6087,1 56801U 23078AL  24031.46350774 -.00000659  00000-0 -47437-4 0  9997,2 56801  69.9991 101.3091 0003005 267.0765  93.0050 14.98335803 38362,6950.175,96.107,574.128,569.951,0.0
56801.0,STARLINK-6087,PAYLOAD,2024-01-31 14:19:42,14.98338954,0.0003025,69.9993,100.9726,269.6318,90.4494,-1.8369e-05,-3.12e-06,0.0,0 STARLINK-6087,1 56801U 23078AL  24031.59702434 -.00000312  00000-0 -18369-4 0  9993,2 56801  69.9993 100.9726 0003025 269.6318  90.4494 14.98338954 38125,6950.165,96.106,574.133,569.928,0.0
